start=new Date('2022-10-09T00:00:00.000Z').valueOf();
sats=[{"RA_OF_ASC_NODE":"300.7734","OBJECT_NAME":"STARLINK-1538","EPHEMERIS_TYPE":"0","DECAY_DATE":null,"OBJECT_TYPE":"PAYLOAD","MEAN_MOTION_DOT":"0.00001014","COUNTRY_CODE":"US","ARG_OF_PERICENTER":"49.8321","INCLINATION":"53.0568","BSTAR":"0.00008698200000","TIME_SYSTEM":"UTC","GP_ID":"214471597","SITE":"AFETR","PERIAPSIS":"545.942","NORAD_CAT_ID":"46071","TLE_LINE2":"2 46071  53.0568 300.7734 0001863  49.8321 310.2831 15.06394080121150","MEAN_ELEMENT_THEORY":"SGP4","EPOCH":"2022-10-08T07:39:02.083968","CLASSIFICATION_TYPE":"U","APOAPSIS":"548.522","PERIOD":"95.593","ELEMENT_SET_NO":"999","TLE_LINE1":"1 46071U 20055AW  22281.31877412  .00001014  00000-0  86982-4 0  9991","MEAN_MOTION":"15.06394080","FILE":"3596390","MEAN_MOTION_DDOT":"0.0000000000000","REF_FRAME":"TEME","REV_AT_EPOCH":"12115","SEMIMAJOR_AXIS":"6925.367","CENTER_NAME":"EARTH","OBJECT_ID":"2020-055AW","MEAN_ANOMALY":"310.2831","RCS_SIZE":"LARGE","ECCENTRICITY":"0.00018630","LAUNCH_DATE":"2020-08-07"},{"INCLINATION":"53.0525","DECAY_DATE":null,"OBJECT_TYPE":"PAYLOAD","COUNTRY_CODE":"US","ARG_OF_PERICENTER":"54.1723","MEAN_MOTION_DOT":"0.00001325","EPHEMERIS_TYPE":"0","RA_OF_ASC_NODE":"298.8881","OBJECT_NAME":"STARLINK-1539","NORAD_CAT_ID":"46072","TLE_LINE2":"2 46072  53.0525 298.8881 0001841  54.1723 305.9437 15.06398920121201","SITE":"AFETR","PERIAPSIS":"545.942","TIME_SYSTEM":"UTC","BSTAR":"0.00010786000000","GP_ID":"214502788","TLE_LINE1":"1 46072U 20055AX  22281.74171191  .00001325  00000-0  10786-3 0  9993","MEAN_MOTION":"15.06398920","ELEMENT_SET_NO":"999","PERIOD":"95.592","CLASSIFICATION_TYPE":"U","APOAPSIS":"548.492","MEAN_ELEMENT_THEORY":"SGP4","EPOCH":"2022-10-08T17:48:03.909024","ECCENTRICITY":"0.00018410","LAUNCH_DATE":"2020-08-07","MEAN_ANOMALY":"305.9437","CENTER_NAME":"EARTH","OBJECT_ID":"2020-055AX","RCS_SIZE":"LARGE","MEAN_MOTION_DDOT":"0.0000000000000","REF_FRAME":"TEME","REV_AT_EPOCH":"12120","SEMIMAJOR_AXIS":"6925.352","FILE":"3596607"},{"SITE":"AFETR","PERIAPSIS":"546.006","NORAD_CAT_ID":"46073","TLE_LINE2":"2 46073  53.0538 298.8078 0001752  49.0326 311.0814 15.06398230121219","BSTAR":"0.00014147000000","TIME_SYSTEM":"UTC","GP_ID":"214502542","DECAY_DATE":null,"OBJECT_TYPE":"PAYLOAD","MEAN_MOTION_DOT":"0.00001826","COUNTRY_CODE":"US","ARG_OF_PERICENTER":"49.0326","INCLINATION":"53.0538","RA_OF_ASC_NODE":"298.8078","OBJECT_NAME":"STARLINK-1542","EPHEMERIS_TYPE":"0","MEAN_ANOMALY":"311.0814","CENTER_NAME":"EARTH","OBJECT_ID":"2020-055AY","RCS_SIZE":"LARGE","ECCENTRICITY":"0.00017520","LAUNCH_DATE":"2020-08-07","FILE":"3596607","MEAN_MOTION_DDOT":"0.0000000000000","REF_FRAME":"TEME","REV_AT_EPOCH":"12121","SEMIMAJOR_AXIS":"6925.354","ELEMENT_SET_NO":"999","PERIOD":"95.592","TLE_LINE1":"1 46073U 20055AY  22281.75739333  .00001826  00000-0  14147-3 0  9994","MEAN_MOTION":"15.06398230","MEAN_ELEMENT_THEORY":"SGP4","EPOCH":"2022-10-08T18:10:38.783712","CLASSIFICATION_TYPE":"U","APOAPSIS":"548.432"},{"BSTAR":"0.00036393000000","TIME_SYSTEM":"UTC","GP_ID":"214503790","SITE":"AFETR","PERIAPSIS":"545.887","NORAD_CAT_ID":"46074","TLE_LINE2":"2 46074  53.0541 298.8642 0001957  53.9334 306.1836 15.06390761121200","RA_OF_ASC_NODE":"298.8642","OBJECT_NAME":"STARLINK-1549","EPHEMERIS_TYPE":"0","DECAY_DATE":null,"OBJECT_TYPE":"PAYLOAD","COUNTRY_CODE":"US","MEAN_MOTION_DOT":"0.00005142","ARG_OF_PERICENTER":"53.9334","INCLINATION":"53.0541","FILE":"3596607","MEAN_MOTION_DDOT":"0.0000000000000","REF_FRAME":"TEME","REV_AT_EPOCH":"12120","SEMIMAJOR_AXIS":"6925.377","OBJECT_ID":"2020-055AZ","MEAN_ANOMALY":"306.1836","CENTER_NAME":"EARTH","RCS_SIZE":"LARGE","ECCENTRICITY":"0.00019570","LAUNCH_DATE":"2020-08-07","MEAN_ELEMENT_THEORY":"SGP4","EPOCH":"2022-10-08T17:49:25.742784","CLASSIFICATION_TYPE":"U","APOAPSIS":"548.597","PERIOD":"95.593","ELEMENT_SET_NO":"999","TLE_LINE1":"1 46074U 20055AZ  22281.74265906  .00005142  00000-0  36393-3 0  9996","MEAN_MOTION":"15.06390761"},{"PERIAPSIS":"546.005","SITE":"AFETR","TLE_LINE2":"2 46075  53.0564 298.7511 0001688  50.5408 309.5730 15.06412959121211","NORAD_CAT_ID":"46075","GP_ID":"214503541","TIME_SYSTEM":"UTC","BSTAR":"-0.00028837000000","MEAN_MOTION_DOT":"-0.00004576","COUNTRY_CODE":"US","ARG_OF_PERICENTER":"50.5408","OBJECT_TYPE":"PAYLOAD","DECAY_DATE":null,"INCLINATION":"53.0564","OBJECT_NAME":"STARLINK-1551","RA_OF_ASC_NODE":"298.7511","EPHEMERIS_TYPE":"0","RCS_SIZE":"LARGE","MEAN_ANOMALY":"309.5730","CENTER_NAME":"EARTH","OBJECT_ID":"2020-055BA","LAUNCH_DATE":"2020-08-07","ECCENTRICITY":"0.00016880","FILE":"3596607","REV_AT_EPOCH":"12121","SEMIMAJOR_AXIS":"6925.309","MEAN_MOTION_DDOT":"0.0000000000000","REF_FRAME":"TEME","PERIOD":"95.591","ELEMENT_SET_NO":"999","MEAN_MOTION":"15.06412959","TLE_LINE1":"1 46075U 20055BA  22281.76845591 -.00004576  00000-0 -28837-3 0  9999","EPOCH":"2022-10-08T18:26:34.590624","MEAN_ELEMENT_THEORY":"SGP4","CLASSIFICATION_TYPE":"U","APOAPSIS":"548.343"},{"TLE_LINE2":"2 46076  53.0545 300.7374 0002059  48.5721 311.5444 15.06392388121139","NORAD_CAT_ID":"46076","PERIAPSIS":"545.811","SITE":"AFETR","GP_ID":"214472346","TIME_SYSTEM":"UTC","BSTAR":"0.00004307000000","INCLINATION":"53.0545","ARG_OF_PERICENTER":"48.5721","COUNTRY_CODE":"US","MEAN_MOTION_DOT":"0.00000360","DECAY_DATE":null,"OBJECT_TYPE":"PAYLOAD","EPHEMERIS_TYPE":"0","OBJECT_NAME":"STARLINK-1552","RA_OF_ASC_NODE":"300.7374","LAUNCH_DATE":"2020-08-07","ECCENTRICITY":"0.00020590","RCS_SIZE":"LARGE","OBJECT_ID":"2020-055BB","MEAN_ANOMALY":"311.5444","CENTER_NAME":"EARTH","REV_AT_EPOCH":"12113","SEMIMAJOR_AXIS":"6925.372","MEAN_MOTION_DDOT":"0.0000000000000","REF_FRAME":"TEME","FILE":"3596390","MEAN_MOTION":"15.06392388","TLE_LINE1":"1 46076U 20055BB  22281.32982976  .00000360  00000-0  43070-4 0  9993","PERIOD":"95.593","ELEMENT_SET_NO":"999","CLASSIFICATION_TYPE":"U","APOAPSIS":"548.663","EPOCH":"2022-10-08T07:54:57.291264","MEAN_ELEMENT_THEORY":"SGP4"},{"RCS_SIZE":"LARGE","MEAN_ANOMALY":"306.1720","CENTER_NAME":"EARTH","OBJECT_ID":"2020-055BC","LAUNCH_DATE":"2020-08-07","ECCENTRICITY":"0.00018890","FILE":"3596607","SEMIMAJOR_AXIS":"6925.364","REV_AT_EPOCH":"12117","REF_FRAME":"TEME","MEAN_MOTION_DDOT":"0.0000000000000","PERIOD":"95.592","ELEMENT_SET_NO":"999","MEAN_MOTION":"15.06395072","TLE_LINE1":"1 46077U 20055BC  22281.77583350  .00001243  00000-0  10235-3 0  9993","EPOCH":"2022-10-08T18:37:12.014400","MEAN_ELEMENT_THEORY":"SGP4","APOAPSIS":"548.537","CLASSIFICATION_TYPE":"U","PERIAPSIS":"545.920","SITE":"AFETR","TLE_LINE2":"2 46077  53.0558 298.7309 0001889  53.9443 306.1720 15.06395072121173","NORAD_CAT_ID":"46077","GP_ID":"214503041","TIME_SYSTEM":"UTC","BSTAR":"0.00010235000000","COUNTRY_CODE":"US","ARG_OF_PERICENTER":"53.9443","MEAN_MOTION_DOT":"0.00001243","OBJECT_TYPE":"PAYLOAD","DECAY_DATE":null,"INCLINATION":"53.0558","OBJECT_NAME":"STARLINK-1559","RA_OF_ASC_NODE":"298.7309","EPHEMERIS_TYPE":"0"},{"MEAN_MOTION":"15.06391257","TLE_LINE1":"1 46078U 20055BD  22281.55467694  .00000387  00000-0  44900-4 0  9997","ELEMENT_SET_NO":"999","PERIOD":"95.593","CLASSIFICATION_TYPE":"U","APOAPSIS":"548.677","EPOCH":"2022-10-08T13:18:44.087616","MEAN_ELEMENT_THEORY":"SGP4","LAUNCH_DATE":"2020-08-07","ECCENTRICITY":"0.00020740","RCS_SIZE":"LARGE","MEAN_ANOMALY":"322.1600","CENTER_NAME":"EARTH","OBJECT_ID":"2020-055BD","REV_AT_EPOCH":"12115","SEMIMAJOR_AXIS":"6925.375","MEAN_MOTION_DDOT":"0.0000000000000","REF_FRAME":"TEME","FILE":"3596607","INCLINATION":"53.0546","MEAN_MOTION_DOT":"0.00000387","COUNTRY_CODE":"US","ARG_OF_PERICENTER":"37.9535","DECAY_DATE":null,"OBJECT_TYPE":"PAYLOAD","EPHEMERIS_TYPE":"0","OBJECT_NAME":"STARLINK-1563","RA_OF_ASC_NODE":"299.7161","TLE_LINE2":"2 46078  53.0546 299.7161 0002074  37.9535 322.1600 15.06391257121153","NORAD_CAT_ID":"46078","PERIAPSIS":"545.804","SITE":"AFETR","GP_ID":"214503292","TIME_SYSTEM":"UTC","BSTAR":"0.00004490000000"},{"MEAN_MOTION":"15.06391681","TLE_LINE1":"1 46079U 20055BE  22281.48095403  .00000180  00000-0  31014-4 0  9998","ELEMENT_SET_NO":"999","PERIOD":"95.593","CLASSIFICATION_TYPE":"U","APOAPSIS":"548.319","EPOCH":"2022-10-08T11:32:34.428192","MEAN_ELEMENT_THEORY":"SGP4","LAUNCH_DATE":"2020-08-07","ECCENTRICITY":"0.00015600","RCS_SIZE":"LARGE","OBJECT_ID":"2020-055BE","CENTER_NAME":"EARTH","MEAN_ANOMALY":"302.1963","REV_AT_EPOCH":"12117","SEMIMAJOR_AXIS":"6925.374","MEAN_MOTION_DDOT":"0.0000000000000","REF_FRAME":"TEME","FILE":"3596390","INCLINATION":"53.0562","ARG_OF_PERICENTER":"57.9177","COUNTRY_CODE":"US","MEAN_MOTION_DOT":"0.00000180","DECAY_DATE":null,"OBJECT_TYPE":"PAYLOAD","EPHEMERIS_TYPE":"0","OBJECT_NAME":"STARLINK-1566","RA_OF_ASC_NODE":"300.0487","TLE_LINE2":"2 46079  53.0562 300.0487 0001560  57.9177 302.1963 15.06391681121175","NORAD_CAT_ID":"46079","PERIAPSIS":"546.159","SITE":"AFETR","GP_ID":"214471598","TIME_SYSTEM":"UTC","BSTAR":"0.00003101400000"},{"GP_ID":"214502789","BSTAR":"0.00011594000000","TIME_SYSTEM":"UTC","PERIAPSIS":"545.586","SITE":"AFETR","TLE_LINE2":"2 46080  53.0557 298.7329 0002347  35.4336 324.6808 15.06400745121192","NORAD_CAT_ID":"46080","OBJECT_NAME":"STARLINK-1568","RA_OF_ASC_NODE":"298.7329","EPHEMERIS_TYPE":"0","COUNTRY_CODE":"US","MEAN_MOTION_DOT":"0.00001446","ARG_OF_PERICENTER":"35.4336","DECAY_DATE":null,"OBJECT_TYPE":"PAYLOAD","INCLINATION":"53.0557","FILE":"3596607","REV_AT_EPOCH":"12119","SEMIMAJOR_AXIS":"6925.346","MEAN_MOTION_DDOT":"0.0000000000000","REF_FRAME":"TEME","RCS_SIZE":"LARGE","CENTER_NAME":"EARTH","OBJECT_ID":"2020-055BF","MEAN_ANOMALY":"324.6808","LAUNCH_DATE":"2020-08-07","ECCENTRICITY":"0.00023470","EPOCH":"2022-10-08T18:30:31.234176","MEAN_ELEMENT_THEORY":"SGP4","CLASSIFICATION_TYPE":"U","APOAPSIS":"548.837","PERIOD":"95.592","ELEMENT_SET_NO":"999","MEAN_MOTION":"15.06400745","TLE_LINE1":"1 46080U 20055BF  22281.77119484  .00001446  00000-0  11594-3 0  9994"}];
